start=new Date('2023-05-13T00:00:00.000Z').valueOf();
sats=[{"NORAD_CAT_ID":"48115","RCS_SIZE":"LARGE","COUNTRY_CODE":"US","MEAN_ELEMENT_THEORY":"SGP4","TLE_LINE2":"2 48115  53.0539 114.6134 0001515 108.8997 251.2156 15.06397862117008","CLASSIFICATION_TYPE":"U","EPHEMERIS_TYPE":"0","TLE_LINE1":"1 48115U 21027Z   23132.65252851  .00000118  00000-0  26838-4 0  9997","FILE":"3906381","ECCENTRICITY":"0.00015150","GP_ID":"231708368","DECAY_DATE":null,"EPOCH":"2023-05-12T15:39:38.463264","MEAN_MOTION_DDOT":"0.0000000000000","ELEMENT_SET_NO":"999","INCLINATION":"53.0539","OBJECT_ID":"2021-027Z","REV_AT_EPOCH":"11700","ARG_OF_PERICENTER":"108.8997","LAUNCH_DATE":"2021-04-07","PERIAPSIS":"546.171","RA_OF_ASC_NODE":"114.6134","BSTAR":"0.00002683800000","SEMIMAJOR_AXIS":"6925.355","REF_FRAME":"TEME","OBJECT_NAME":"STARLINK-2452","APOAPSIS":"548.269","MEAN_MOTION_DOT":"0.00000118","OBJECT_TYPE":"PAYLOAD","PERIOD":"95.592","CENTER_NAME":"EARTH","SITE":"AFETR","TIME_SYSTEM":"UTC","MEAN_ANOMALY":"251.2156","MEAN_MOTION":"15.06397862"},{"APOAPSIS":"548.066","MEAN_MOTION_DOT":"0.00001174","OBJECT_NAME":"STARLINK-2454","OBJECT_TYPE":"PAYLOAD","TIME_SYSTEM":"UTC","MEAN_ANOMALY":"277.5293","PERIOD":"95.593","CENTER_NAME":"EARTH","SITE":"AFETR","MEAN_MOTION":"15.06392178","OBJECT_ID":"2021-027AA","ELEMENT_SET_NO":"999","INCLINATION":"53.0530","LAUNCH_DATE":"2021-04-07","PERIAPSIS":"546.409","REV_AT_EPOCH":"11680","ARG_OF_PERICENTER":"82.5832","BSTAR":"0.00009773000000","RA_OF_ASC_NODE":"126.3658","SEMIMAJOR_AXIS":"6925.373","REF_FRAME":"TEME","TLE_LINE1":"1 48116U 21027AA  23132.26185053  .00001174  00000-0  97730-4 0  9996","ECCENTRICITY":"0.00011960","GP_ID":"231706620","FILE":"3906381","MEAN_MOTION_DDOT":"0.0000000000000","DECAY_DATE":null,"EPOCH":"2023-05-12T06:17:03.885792","NORAD_CAT_ID":"48116","RCS_SIZE":"LARGE","CLASSIFICATION_TYPE":"U","MEAN_ELEMENT_THEORY":"SGP4","COUNTRY_CODE":"US","TLE_LINE2":"2 48116  53.0530 126.3658 0001196  82.5832 277.5293 15.06392178116807","EPHEMERIS_TYPE":"0"},{"DECAY_DATE":null,"MEAN_MOTION_DDOT":"0.0000000000000","EPOCH":"2023-05-12T15:09:07.263648","FILE":"3906078","GP_ID":"231679255","ECCENTRICITY":"0.00012890","TLE_LINE1":"1 48117U 21027AB  23132.63133407  .00000582  00000-0  57992-4 0  9992","EPHEMERIS_TYPE":"0","TLE_LINE2":"2 48117  53.0532 104.6947 0001289 104.2346 255.8786 15.06396564116747","COUNTRY_CODE":"US","MEAN_ELEMENT_THEORY":"SGP4","CLASSIFICATION_TYPE":"U","RCS_SIZE":"LARGE","NORAD_CAT_ID":"48117","MEAN_MOTION":"15.06396564","CENTER_NAME":"EARTH","SITE":"AFETR","PERIOD":"95.592","TIME_SYSTEM":"UTC","MEAN_ANOMALY":"255.8786","OBJECT_TYPE":"PAYLOAD","OBJECT_NAME":"STARLINK-2455","MEAN_MOTION_DOT":"0.00000582","APOAPSIS":"548.117","SEMIMAJOR_AXIS":"6925.359","REF_FRAME":"TEME","BSTAR":"0.00005799200000","RA_OF_ASC_NODE":"104.6947","REV_AT_EPOCH":"11674","ARG_OF_PERICENTER":"104.2346","PERIAPSIS":"546.331","LAUNCH_DATE":"2021-04-07","INCLINATION":"53.0532","ELEMENT_SET_NO":"999","OBJECT_ID":"2021-027AB"},{"OBJECT_ID":"2021-027AC","ELEMENT_SET_NO":"999","INCLINATION":"53.0542","LAUNCH_DATE":"2021-04-07","PERIAPSIS":"546.403","REV_AT_EPOCH":"11714","ARG_OF_PERICENTER":"85.0583","RA_OF_ASC_NODE":"104.6493","BSTAR":"0.00004613900000","SEMIMAJOR_AXIS":"6925.371","REF_FRAME":"TEME","APOAPSIS":"548.070","MEAN_MOTION_DOT":"0.00000406","OBJECT_NAME":"STARLINK-2458","OBJECT_TYPE":"PAYLOAD","TIME_SYSTEM":"UTC","MEAN_ANOMALY":"275.0543","PERIOD":"95.593","CENTER_NAME":"EARTH","SITE":"AFETR","MEAN_MOTION":"15.06392526","NORAD_CAT_ID":"48118","RCS_SIZE":"LARGE","CLASSIFICATION_TYPE":"U","MEAN_ELEMENT_THEORY":"SGP4","COUNTRY_CODE":"US","TLE_LINE2":"2 48118  53.0542 104.6493 0001203  85.0583 275.0543 15.06392526117144","EPHEMERIS_TYPE":"0","TLE_LINE1":"1 48118U 21027AC  23132.64334064  .00000406  00000-0  46139-4 0  9992","ECCENTRICITY":"0.00012030","GP_ID":"231707617","FILE":"3906381","DECAY_DATE":null,"EPOCH":"2023-05-12T15:26:24.631296","MEAN_MOTION_DDOT":"0.0000000000000"},{"EPHEMERIS_TYPE":"0","CLASSIFICATION_TYPE":"U","TLE_LINE2":"2 48119  53.0535 104.6592 0001184  84.6072 275.5052 15.06389376117131","COUNTRY_CODE":"US","MEAN_ELEMENT_THEORY":"SGP4","RCS_SIZE":"LARGE","NORAD_CAT_ID":"48119","DECAY_DATE":null,"MEAN_MOTION_DDOT":"0.0000000000000","EPOCH":"2023-05-12T15:19:44.637312","GP_ID":"231707869","ECCENTRICITY":"0.00011840","FILE":"3906381","TLE_LINE1":"1 48119U 21027AD  23132.63871108 -.00001489  00000-0 -81114-4 0  9993","SEMIMAJOR_AXIS":"6925.381","REF_FRAME":"TEME","RA_OF_ASC_NODE":"104.6592","BSTAR":"-0.00008111400000","PERIAPSIS":"546.426","LAUNCH_DATE":"2021-04-07","REV_AT_EPOCH":"11713","ARG_OF_PERICENTER":"84.6072","OBJECT_ID":"2021-027AD","ELEMENT_SET_NO":"999","INCLINATION":"53.0535","MEAN_MOTION":"15.06389376","TIME_SYSTEM":"UTC","MEAN_ANOMALY":"275.5052","CENTER_NAME":"EARTH","SITE":"AFETR","PERIOD":"95.593","OBJECT_TYPE":"PAYLOAD","MEAN_MOTION_DOT":"-0.00001489","APOAPSIS":"548.066","OBJECT_NAME":"STARLINK-2459"},{"ELEMENT_SET_NO":"999","INCLINATION":"53.0535","OBJECT_ID":"2021-027AE","ARG_OF_PERICENTER":"96.7341","REV_AT_EPOCH":"11688","LAUNCH_DATE":"2021-04-07","PERIAPSIS":"546.352","BSTAR":"0.00001262400000","RA_OF_ASC_NODE":"124.3398","REF_FRAME":"TEME","SEMIMAJOR_AXIS":"6925.370","OBJECT_NAME":"STARLINK-2460","APOAPSIS":"548.118","MEAN_MOTION_DOT":"-0.00000093","OBJECT_TYPE":"PAYLOAD","PERIOD":"95.593","CENTER_NAME":"EARTH","SITE":"AFETR","MEAN_ANOMALY":"263.3793","TIME_SYSTEM":"UTC","MEAN_MOTION":"15.06392950","NORAD_CAT_ID":"48120","RCS_SIZE":"LARGE","MEAN_ELEMENT_THEORY":"SGP4","COUNTRY_CODE":"US","TLE_LINE2":"2 48120  53.0535 124.3398 0001275  96.7341 263.3793 15.06392950116880","CLASSIFICATION_TYPE":"U","EPHEMERIS_TYPE":"0","TLE_LINE1":"1 48120U 21027AE  23132.71153304 -.00000093  00000-0  12624-4 0  9994","FILE":"3906381","ECCENTRICITY":"0.00012750","GP_ID":"231707120","MEAN_MOTION_DDOT":"0.0000000000000","DECAY_DATE":null,"EPOCH":"2023-05-12T17:04:36.454656"},{"MEAN_MOTION":"15.06401132","MEAN_ANOMALY":"277.9728","TIME_SYSTEM":"UTC","CENTER_NAME":"EARTH","SITE":"AFETR","PERIOD":"95.592","OBJECT_TYPE":"PAYLOAD","MEAN_MOTION_DOT":"0.00003438","APOAPSIS":"547.964","OBJECT_NAME":"STARLINK-2462","REF_FRAME":"TEME","SEMIMAJOR_AXIS":"6925.345","BSTAR":"0.00024955000000","RA_OF_ASC_NODE":"113.5800","PERIAPSIS":"546.457","LAUNCH_DATE":"2021-04-07","ARG_OF_PERICENTER":"82.1385","REV_AT_EPOCH":"11703","OBJECT_ID":"2021-027AF","ELEMENT_SET_NO":"999","INCLINATION":"53.0539","EPOCH":"2023-05-12T21:10:05.308896","DECAY_DATE":null,"MEAN_MOTION_DDOT":"0.0000000000000","GP_ID":"231707370","ECCENTRICITY":"0.00010880","FILE":"3906381","TLE_LINE1":"1 48121U 21027AF  23132.88200589  .00003438  00000-0  24955-3 0  9995","EPHEMERIS_TYPE":"0","CLASSIFICATION_TYPE":"U","TLE_LINE2":"2 48121  53.0539 113.5800 0001088  82.1385 277.9728 15.06401132117032","COUNTRY_CODE":"US","MEAN_ELEMENT_THEORY":"SGP4","RCS_SIZE":"LARGE","NORAD_CAT_ID":"48121"},{"MEAN_MOTION":"15.06386049","TIME_SYSTEM":"UTC","MEAN_ANOMALY":"273.8956","CENTER_NAME":"EARTH","SITE":"AFETR","PERIOD":"95.593","OBJECT_TYPE":"PAYLOAD","MEAN_MOTION_DOT":"-0.00002226","APOAPSIS":"548.159","OBJECT_NAME":"STARLINK-2463","SEMIMAJOR_AXIS":"6925.391","REF_FRAME":"TEME","BSTAR":"-0.00013067000000","RA_OF_ASC_NODE":"111.5385","PERIAPSIS":"546.353","LAUNCH_DATE":"2021-04-07","ARG_OF_PERICENTER":"86.2182","REV_AT_EPOCH":"11661","OBJECT_ID":"2021-027AG","ELEMENT_SET_NO":"999","INCLINATION":"53.0530","DECAY_DATE":null,"EPOCH":"2023-05-12T05:12:41.809248","MEAN_MOTION_DDOT":"0.0000000000000","GP_ID":"231643889","ECCENTRICITY":"0.00013040","FILE":"3905687","TLE_LINE1":"1 48122U 21027AG  23132.21715057 -.00002226  00000-0 -13067-3 0  9992","EPHEMERIS_TYPE":"0","CLASSIFICATION_TYPE":"U","TLE_LINE2":"2 48122  53.0530 111.5385 0001304  86.2182 273.8956 15.06386049116611","COUNTRY_CODE":"US","MEAN_ELEMENT_THEORY":"SGP4","RCS_SIZE":"LARGE","NORAD_CAT_ID":"48122"},{"BSTAR":"0.00010546000000","RA_OF_ASC_NODE":"106.5191","SEMIMAJOR_AXIS":"6925.359","REF_FRAME":"TEME","OBJECT_ID":"2021-027AH","INCLINATION":"53.0537","ELEMENT_SET_NO":"999","PERIAPSIS":"546.152","LAUNCH_DATE":"2021-04-07","ARG_OF_PERICENTER":"85.5053","REV_AT_EPOCH":"11667","TIME_SYSTEM":"UTC","MEAN_ANOMALY":"274.6113","CENTER_NAME":"EARTH","SITE":"AFETR","PERIOD":"95.592","MEAN_MOTION":"15.06396436","MEAN_MOTION_DOT":"0.00001289","APOAPSIS":"548.297","OBJECT_NAME":"STARLINK-2464","OBJECT_TYPE":"PAYLOAD","EPHEMERIS_TYPE":"0","RCS_SIZE":"LARGE","NORAD_CAT_ID":"48123","CLASSIFICATION_TYPE":"U","TLE_LINE2":"2 48123  53.0537 106.5191 0001549  85.5053 274.6113 15.06396436116679","MEAN_ELEMENT_THEORY":"SGP4","COUNTRY_CODE":"US","DECAY_DATE":null,"EPOCH":"2023-05-12T05:26:38.200992","MEAN_MOTION_DDOT":"0.0000000000000","TLE_LINE1":"1 48123U 21027AH  23132.22683103  .00001289  00000-0  10546-3 0  9995","GP_ID":"231645928","ECCENTRICITY":"0.00015490","FILE":"3905783"},{"BSTAR":"0.00006490200000","RA_OF_ASC_NODE":"116.5298","SEMIMAJOR_AXIS":"6925.359","REF_FRAME":"TEME","ELEMENT_SET_NO":"999","INCLINATION":"53.0541","OBJECT_ID":"2021-027AJ","REV_AT_EPOCH":"11654","ARG_OF_PERICENTER":"90.2826","LAUNCH_DATE":"2021-04-07","PERIAPSIS":"546.343","PERIOD":"95.592","CENTER_NAME":"EARTH","SITE":"AFETR","MEAN_ANOMALY":"269.8309","TIME_SYSTEM":"UTC","MEAN_MOTION":"15.06396722","OBJECT_NAME":"STARLINK-2465","APOAPSIS":"548.105","MEAN_MOTION_DOT":"0.00000685","OBJECT_TYPE":"PAYLOAD","EPHEMERIS_TYPE":"0","NORAD_CAT_ID":"48124","RCS_SIZE":"LARGE","MEAN_ELEMENT_THEORY":"SGP4","COUNTRY_CODE":"US","TLE_LINE2":"2 48124  53.0541 116.5298 0001272  90.2826 269.8309 15.06396722116545","CLASSIFICATION_TYPE":"U","DECAY_DATE":null,"EPOCH":"2023-05-12T05:25:18.064128","MEAN_MOTION_DDOT":"0.0000000000000","TLE_LINE1":"1 48124U 21027AJ  23132.22590352  .00000685  00000-0  64902-4 0  9994","FILE":"3905687","ECCENTRICITY":"0.00012720","GP_ID":"231643439"}];
